#aV2011  3 10  0  0   .00000000      96 DD+AD WGS84 FIT  NGA
## 1626 345600.00000000   900.00000000 55630  .0000000000000
+   32     1  2  3  4  5  6  7  8  9 10 11 12 13 14 15 16 17
+         18 19 20 21 22 23 24 25 26 27 28 29 30 31 32  0  0
+          0  0  0  0  0  0  0  0  0  0  0  0  0  0  0  0  0
+          0  0  0  0  0  0  0  0  0  0  0  0  0  0  0  0  0
+          0  0  0  0  0  0  0  0  0  0  0  0  0  0  0  0  0
++         0  0  0  0  0  0  0  0  0  0  0  0  0  0  0  0  0
++         0  0  0  0  0  0  0  0  0  0  0  0  0  0  0  0  0
++         0  0  0  0  0  0  0  0  0  0  0  0  0  0  0  0  0
++         0  0  0  0  0  0  0  0  0  0  0  0  0  0  0  0  0
++         0  0  0  0  0  0  0  0  0  0  0  0  0  0  0  0  0
%c cc cc ccc ccc cccc cccc cccc cccc ccccc ccccc ccccc ccccc
%c cc cc ccc ccc cccc cccc cccc cccc ccccc ccccc ccccc ccccc
%f  0.0000000  0.000000000  0.00000000000  0.000000000000000
%f  0.0000000  0.000000000  0.00000000000  0.000000000000000
%i    0    0    0    0      0      0      0      0         0
%i    0    0    0    0      0      0      0      0         0
/*      NGA, ST. LOUIS,MO.                                  
/*   EPHEMERIS COMPUTED FROM  3 DAYS OF DATA                
/* CCCCCCCCCCCCCCCCCCCCCCCCCCCCCCCCCCCCCCCCCCCCCCCCCCCCCCCCC
/* CCCCCCCCCCCCCCCCCCCCCCCCCCCCCCCCCCCCCCCCCCCCCCCCCCCCCCCCC
*  2011  3 10 15  0   .00000000                                                 
P  1 -20391.964021  -1773.762271  16888.844550   -214.366501                    
V  1 -15619.558506 -14989.691529 -20160.786720      -.028377                    
P  2  21680.918527 -13465.969692   6399.134459    324.456534                    
V  2   9022.915118    492.624002 -30138.379874       .019551                    
P  3 -10770.781848  19898.630706  13240.233061    686.550788                    
V  3  -2565.640789 -17818.966553  24279.528406       .051769                    
P  4  25708.012386  -5451.672029  -5184.894956     56.868866                    
V  4  -4821.098083   5080.413039 -30116.965642       .103805                    
P  5  11235.333732 -10563.241885  21608.475097   -126.905428                    
V  5  21101.829482  17640.923014  -2243.512396      -.058728                    
P  6 -13914.005101  15749.037023  16280.583759      8.577679                    
V  6    -41.000713 -20676.932893  20376.092950     -1.321716                    
P  7  15675.027884   8570.193522  19725.277163      5.301909                    
V  7 -23119.668798   9387.692434  14100.152999       .008547                    
P  8  23536.292387   1948.303405  12708.769646      7.527871                    
V  8 -14985.314570   5249.240649  26463.282031       .000460                    
P  9   4434.149683 -16630.245051 -20772.284523     66.744535                    
V  9  23591.809369  -8584.168744  12244.427153       .023922                    
P 10  21310.266253   3890.407669  15397.141516    -68.430678                    
V 10  13635.322843  14527.041075 -21867.867529      -.010352                    
P 11  -2469.675481  19509.056012 -18025.236912   -133.351229                    
V 11 -20161.089823  10743.355682  15004.247172      -.030709                    
P 12  -5570.251498 -19820.593344 -16845.969163    -20.412641                    
V 12  17170.924270  12770.051087 -20497.384672       .029119                    
P 13   6760.293268  19008.842262  17105.915233    279.578046                    
V 13  -6601.793775  20974.788900 -20574.607668      -.014457                    
P 14 -14694.113848  -1207.089866 -21928.952050    136.610082                    
V 14   6030.078769 -27512.376022  -2637.063803       .024794                    
P 15   3409.261779 -26237.576615   -798.846174   -144.578068                    
V 15   3398.348680   -527.759084  31614.990652       .032290                    
P 16 -13519.047168   7613.865870  21627.529930   -156.624174                    
V 16 -20227.429907 -18333.155980  -5909.155468      -.028621                    
P 17  14961.893719   2396.461966 -21679.901575    183.789737                    
V 17  -5293.506296  27336.965666   -848.166584       .002793                    
P 18 -20969.491899 -16533.512360  -1518.710512    125.730259                    
V 18    464.711081  -4026.774373  30822.364136       .020459                    
P 19  -8205.038184  24942.246609   2477.040712   -118.827495                    
V 19  -2274.227785  -3862.088545  31723.876973      -.037373                    
P 20   9927.562756  20535.324913 -13812.665715     48.688773                    
V 20 -15398.158765  -8415.843905 -23770.802550       .000279                    
P 21 -17168.851227  -8747.297921  18913.646156   -129.426265                    
V 21  21280.407622  -9103.431758  14807.970874      -.026449                    
P 22 -22457.459306  -7993.477105 -11652.750054    152.054844                    
V 22  -9358.993460 -12222.701773  25951.868874      -.007075                    
P 23    315.643609  25428.560174   7022.682073    321.003539                    
V 23  -4381.978388   8351.587678 -30361.281812      -.024761                    
P 24  -1606.825455  16186.572381 -20893.203919    372.140542                    
V 24 -25818.664062   7081.895051   7720.052284       .031696                    
P 25 -17483.251929 -19181.149945  -5696.056453    -70.617205                    
V 25   7280.070612   2459.814243 -30682.991147      -.009059                    
P 26  11950.294304 -21009.132584   9922.235530   -141.519823                    
V 26  -1127.912403  13699.589391  29098.097070      -.100101                    
P 27  10887.867002 -16760.933330 -16671.367549    244.244743                    
V 27  21433.911673  -7188.293886  20710.195035       .037264                    
P 28  22049.228713  12015.953577  -8532.834407     24.425090                    
V 28   7092.333008   9261.269884  29332.160228       .021470                    
P 29  -6030.074391 -21353.471576  14708.458716    191.354551                    
V 29   5756.168311 -17716.188697 -23451.906941       .027771                    
P 30 -18660.091000   2028.501718  18397.449816    328.049278                    
V 30 -18320.892596 -15891.439073 -16436.885678       .030994                    
P 31 -25483.598818   7385.488751  -2544.347630     51.349414                    
V 31   2559.209099  -3106.236391 -31809.530239       .048580                    
P 32   1024.060070  19148.529697 -18257.215740   -212.232884                    
V 32 -17843.925864 -15585.760910 -16680.818939      -.076511                    
EOF
